CTC2_L_00293016-03
1 10062U 23028PY  26075.70043981  .00000000  00000+0  00000-0 0  9995
2 10062  70.0000 180.0000 0000000   0.0000   0.0000 13.81096544    19
CTC2_L_00293016-04
1 10063U 24357SH  26075.70043981  .00000000  00000+0  00000-0 0  9992
2 10063  70.0000 180.0000 0000000   0.0000  90.0000 13.81096544    19
CTC2_L_00293017-01
1 10064U 24086VT  26075.70043981  .00000000  00000+0  00000-0 0  9992
2 10064  70.0000 192.0000 0000000   0.0000 192.0000 13.81096544    16
CTC2_L_00293017-02
1 10065U 25948AE  26075.70043981  .00000000  00000+0  00000-0 0  9991
2 10065  70.0000 192.0000 0000000   0.0000 282.0000 13.81096544    17
CTC2_L_00293017-03
1 10066U 25350ZZ  26075.70043981  .00000000  00000+0  00000-0 0  9999
2 10066  70.0000 192.0000 0000000   0.0000  12.0000 13.81096544    19
CTC2_L_00293017-04
1 10067U 25904KI  26075.70043981  .00000000  00000+0  00000-0 0  9995
2 10067  70.0000 192.0000 0000000   0.0000 102.0000 13.81096544    10
CTC2_L_00293018-01
1 10068U 26129YL  26075.70043981  .00000000  00000+0  00000-0 0  9996
2 10068  70.0000 204.0000 0000000   0.0000 204.0000 13.81096544    18
CTC2_L_00293018-02
1 10069U 25118TG  26075.70043981  .00000000  00000+0  00000-0 0  9994
2 10069  70.0000 204.0000 0000000   0.0000 294.0000 13.81096544    18
CTC2_L_00293018-03
1 10070U 24909ZI  26075.70043981  .00000000  00000+0  00000-0 0  9993
2 10070  70.0000 204.0000 0000000   0.0000  24.0000 13.81096544    11
CTC2_L_00293018-04
1 10071U 22386IZ  26075.70043981  .00000000  00000+0  00000-0 0  9991
2 10071  70.0000 204.0000 0000000   0.0000 114.0000 13.81096544    12
CTC2_L_00293019-01
1 10072U 22575UJ  26075.70043981  .00000000  00000+0  00000-0 0  9992
2 10072  70.0000 216.0000 0000000   0.0000 216.0000 13.81096544    19
CTC2_L_00293019-02
1 10073U 25319OW  26075.70043981  .00000000  00000+0  00000-0 0  9992
2 10073  70.0000 216.0000 0000000   0.0000 306.0000 13.81096544    10
CTC2_L_00293019-03
1 10074U 24347XK  26075.70043981  .00000000  00000+0  00000-0 0  9993
2 10074  70.0000 216.0000 0000000   0.0000  36.0000 13.81096544    11
CTC2_L_00293019-04
1 10075U 26813SF  26075.70043981  .00000000  00000+0  00000-0 0  9994
2 10075  70.0000 216.0000 0000000   0.0000 126.0000 13.81096544    12
CTC2_L_00293020-01
1 10076U 23139SL  26075.70043981  .00000000  00000+0  00000-0 0  9993
2 10076  70.0000 228.0000 0000000   0.0000 228.0000 13.81096544    19
CTC2_L_00293020-02
1 10077U 25506VC  26075.70043981  .00000000  00000+0  00000-0 0  9994
2 10077  70.0000 228.0000 0000000   0.0000 318.0000 13.81096544    10
CTC2_L_00293020-03
1 10078U 25836HL  26075.70043981  .00000000  00000+0  00000-0 0  9991
2 10078  70.0000 228.0000 0000000   0.0000  48.0000 13.81096544    11
CTC2_L_00293020-04
1 10079U 22444MG  26075.70043981  .00000000  00000+0  00000-0 0  9994
2 10079  70.0000 228.0000 0000000   0.0000 138.0000 13.81096544    12
CTC2_L_00293021-01
1 10080U 26766JG  26075.70043981  .00000000  00000+0  00000-0 0  9997
2 10080  70.0000 240.0000 0000000   0.0000 240.0000 13.81096544    12
CTC2_L_00293021-02
1 10081U 23573EV  26075.70043981  .00000000  00000+0  00000-0 0  9991
2 10081  70.0000 240.0000 0000000   0.0000 330.0000 13.81096544    13
CTC2_L_00293021-03
1 10082U 25494ZX  26075.70043981  .00000000  00000+0  00000-0 0  9996
2 10082  70.0000 240.0000 0000000   0.0000  60.0000 13.81096544    14
CTC2_L_00293021-04
1 10083U 26626ZX  26075.70043981  .00000000  00000+0  00000-0 0  9995
2 10083  70.0000 240.0000 0000000   0.0000 150.0000 13.81096544    15
CTC2_L_00293022-01
1 10084U 22753HM  26075.70043981  .00000000  00000+0  00000-0 0  9993
2 10084  70.0000 252.0000 0000000   0.0000 252.0000 13.81096544    12
CTC2_L_00293022-02
1 10085U 24598OX  26075.70043981  .00000000  00000+0  00000-0 0  9993
2 10085  70.0000 252.0000 0000000   0.0000 342.0000 13.81096544    13
CTC2_L_00293022-03
1 10086U 24930XZ  26075.70043981  .00000000  00000+0  00000-0 0  9994
2 10086  70.0000 252.0000 0000000   0.0000  72.0000 13.81096544    14
CTC2_L_00293022-04
1 10087U 22557CI  26075.70043981  .00000000  00000+0  00000-0 0  9998
2 10087  70.0000 252.0000 0000000   0.0000 162.0000 13.81096544    15
CTC2_L_00293023-01
1 10088U 24427AN  26075.70043981  .00000000  00000+0  00000-0 0  9997
2 10088  70.0000 264.0000 0000000   0.0000 264.0000 13.81096544    12
CTC2_L_00293023-02
1 10089U 24051FU  26075.70043981  .00000000  00000+0  00000-0 0  9991
2 10089  70.0000 264.0000 0000000   0.0000 354.0000 13.81096544    13
CTC2_L_00293023-03
1 10090U 23573LV  26075.70043981  .00000000  00000+0  00000-0 0  9991
2 10090  70.0000 264.0000 0000000   0.0000  84.0000 13.81096544    15
CTC2_L_00293023-04
1 10091U 23417JI  26075.70043981  .00000000  00000+0  00000-0 0  9999
2 10091  70.0000 264.0000 0000000   0.0000 174.0000 13.81096544    16
CTC2_L_00293024-01
1 10092U 25204EJ  26075.70043981  .00000000  00000+0  00000-0 0  9996
2 10092  70.0000 276.0000 0000000   0.0000 276.0000 13.81096544    13
CTC2_L_00293024-02
1 10093U 23362LE  26075.70043981  .00000000  00000+0  00000-0 0  9990
2 10093  70.0000 276.0000 0000000   0.0000   6.0000 13.81096544    15
CTC2_L_00293024-03
1 10094U 22438DL  26075.70043981  .00000000  00000+0  00000-0 0  9994
2 10094  70.0000 276.0000 0000000   0.0000  96.0000 13.81096544    15
CTC2_L_00293024-04
1 10095U 26185IL  26075.70043981  .00000000  00000+0  00000-0 0  9998
2 10095  70.0000 276.0000 0000000   0.0000 186.0000 13.81096544    16
CTC2_L_00293025-01
1 10096U 26678ON  26075.70043981  .00000000  00000+0  00000-0 0  9996
2 10096  70.0000 288.0000 0000000   0.0000 288.0000 13.81096544    13
CTC2_L_00293025-02
1 10097U 26414JI  26075.70043981  .00000000  00000+0  00000-0 0  9995
2 10097  70.0000 288.0000 0000000   0.0000  18.0000 13.81096544    15
CTC2_L_00293025-03
1 10098U 24732PH  26075.70043981  .00000000  00000+0  00000-0 0  9997
2 10098  70.0000 288.0000 0000000   0.0000 108.0000 13.81096544    16
CTC2_L_00293025-04
1 10099U 26798UC  26075.70043981  .00000000  00000+0  00000-0 0  9992
2 10099  70.0000 288.0000 0000000   0.0000 198.0000 13.81096544    16
CTC2_L_00293026-01
1 10100U 23547DN  26075.70043981  .00000000  00000+0  00000-0 0  9994
2 10100  70.0000 300.0000 0000000   0.0000 300.0000 13.81096544    19
CTC2_L_00293026-02
1 10101U 24392PZ  26075.70043981  .00000000  00000+0  00000-0 0  9994
2 10101  70.0000 300.0000 0000000   0.0000  30.0000 13.81096544    10
CTC2_L_00293026-03
1 10102U 23539UQ  26075.70043981  .00000000  00000+0  00000-0 0  9997
2 10102  70.0000 300.0000 0000000   0.0000 120.0000 13.81096544    11
CTC2_L_00293026-04
1 10103U 23078JJ  26075.70043981  .00000000  00000+0  00000-0 0  9996
2 10103  70.0000 300.0000 0000000   0.0000 210.0000 13.81096544    12
CTC2_L_00293027-01
1 10104U 24276HB  26075.70043981  .00000000  00000+0  00000-0 0  9998
2 10104  70.0000 312.0000 0000000   0.0000 312.0000 13.81096544    19
CTC2_L_00293027-02
1 10105U 26054QJ  26075.70043981  .00000000  00000+0  00000-0 0  9995
2 10105  70.0000 312.0000 0000000   0.0000  42.0000 13.81096544    10
CTC2_L_00293027-03
1 10106U 22118DY  26075.70043981  .00000000  00000+0  00000-0 0  9993
2 10106  70.0000 312.0000 0000000   0.0000 132.0000 13.81096544    11
CTC2_L_00293027-04
1 10107U 25282XJ  26075.70043981  .00000000  00000+0  00000-0 0  9999
2 10107  70.0000 312.0000 0000000   0.0000 222.0000 13.81096544    12
CTC2_L_00293028-01
1 10108U 22600U   26075.70043981  .00000000  00000+0  00000-0 0  9991
2 10108  70.0000 324.0000 0000000   0.0000 324.0000 13.81096544    19
CTC2_L_00293028-02
1 10109U 24494DI  26075.70043981  .00000000  00000+0  00000-0 0  9995
2 10109  70.0000 324.0000 0000000   0.0000  54.0000 13.81096544    10
CTC2_L_00293028-03
1 10110U 23109IK  26075.70043981  .00000000  00000+0  00000-0 0  9999
2 10110  70.0000 324.0000 0000000   0.0000 144.0000 13.81096544    12
CTC2_L_00293028-04
1 10111U 25230LK  26075.70043981  .00000000  00000+0  00000-0 0  9997
2 10111  70.0000 324.0000 0000000   0.0000 234.0000 13.81096544    13
CTC2_L_00293029-01
1 10112U 25791SF  26075.70043981  .00000000  00000+0  00000-0 0  9990
2 10112  70.0000 336.0000 0000000   0.0000 336.0000 13.81096544    10
CTC2_L_00293029-02
1 10113U 22554UZ  26075.70043981  .00000000  00000+0  00000-0 0  9995
2 10113  70.0000 336.0000 0000000   0.0000  66.0000 13.81096544    11
CTC2_L_00293029-03
1 10114U 26365NT  26075.70043981  .00000000  00000+0  00000-0 0  9990
2 10114  70.0000 336.0000 0000000   0.0000 156.0000 13.81096544    12
CTC2_L_00293029-04
1 10115U 26637ZM  26075.70043981  .00000000  00000+0  00000-0 0  9993
2 10115  70.0000 336.0000 0000000   0.0000 246.0000 13.81096544    13
CTC2_L_00293030-01
1 10116U 22263DK  26075.70043981  .00000000  00000+0  00000-0 0  9995
2 10116  70.0000 348.0000 0000000   0.0000 348.0000 13.81096544    10
CTC2_L_00293030-02
1 10117U 22350XM  26075.70043981  .00000000  00000+0  00000-0 0  9993
2 10117  70.0000 348.0000 0000000   0.0000  78.0000 13.81096544    11
CTC2_L_00293030-03
1 10118U 22744VT  26075.70043981  .00000000  00000+0  00000-0 0  9991
2 10118  70.0000 348.0000 0000000   0.0000 168.0000 13.81096544    12
CTC2_L_00293030-04
1 10119U 24288CC  26075.70043981  .00000000  00000+0  00000-0 0  9997
2 10119  70.0000 348.0000 0000000   0.0000 258.0000 13.81096544    13
